{
  "type": "FeatureCollection",
  "features": [
    {
      "type": "Feature",
      "properties": {
        "norad_id": 43057,
        "name": "GSAT0217 (GALILEO 21)",
        "group": "gnss",
        "lat": 54.9723069310206,
        "lon": -37.63537258894311,
        "alt_km": 23217.50401161928,
        "timestamp": "2025-12-21T22:41:41.703961+00:00",
        "meta_object_name": "GSAT0217 (GALILEO 21)",
        "meta_object_id": "2017-079C",
        "meta_epoch": "2025-12-21T04:57:56.651616",
        "meta_mean_motion": 1.70474014,
        "meta_eccentricity": 0.00027256,
        "meta_inclination": 55.1257,
        "meta_ra_of_asc_node": 226.4024,
        "meta_arg_of_pericenter": 351.227,
        "meta_mean_anomaly": 8.8769,
        "meta_ephemeris_type": 0,
        "meta_classification_type": "U",
        "meta_norad_cat_id": 43057,
        "meta_element_set_no": 999,
        "meta_rev_at_epoch": 4995,
        "meta_bstar": 0,
        "meta_mean_motion_dot": 7.3e-07,
        "meta_mean_motion_ddot": 0,
        "tle_line1": "1 43057U 17079C   25355.20690569  .00000073  00000+0  00000+0 0  9998",
        "tle_line2": "2 43057  55.1257 226.4024 0002725 351.2270   8.8769  1.70474014 49955"
      },
      "geometry": {
        "type": "Point",
        "coordinates": [
          -37.63537258894311,
          54.9723069310206
        ]
      }
    },
    {
      "type": "Feature",
      "properties": {
        "norad_id": 43058,
        "name": "GSAT0218 (GALILEO 22)",
        "group": "gnss",
        "lat": -33.06199095538131,
        "lon": -160.59126258860982,
        "alt_km": 23218.23569748972,
        "timestamp": "2025-12-21T22:41:41.703972+00:00",
        "meta_object_name": "GSAT0218 (GALILEO 22)",
        "meta_object_id": "2017-079D",
        "meta_epoch": "2025-12-20T06:05:26.226528",
        "meta_mean_motion": 1.70474115,
        "meta_eccentricity": 0.00027735,
        "meta_inclination": 55.1262,
        "meta_ra_of_asc_node": 226.4264,
        "meta_arg_of_pericenter": 307.8467,
        "meta_mean_anomaly": 52.2377,
        "meta_ephemeris_type": 0,
        "meta_classification_type": "U",
        "meta_norad_cat_id": 43058,
        "meta_element_set_no": 999,
        "meta_rev_at_epoch": 4996,
        "meta_bstar": 0,
        "meta_mean_motion_dot": 7e-07,
        "meta_mean_motion_ddot": 0,
        "tle_line1": "1 43058U 17079D   25354.25377577  .00000070  00000+0  00000+0 0  9991",
        "tle_line2": "2 43058  55.1262 226.4264 0002773 307.8467  52.2377  1.70474115 49967"
      },
      "geometry": {
        "type": "Point",
        "coordinates": [
          -160.59126258860982,
          -33.06199095538131
        ]
      }
    },
    {
      "type": "Feature",
      "properties": {
        "norad_id": 43107,
        "name": "BEIDOU-3 M7 (C27)",
        "group": "gnss",
        "lat": -30.822259260112375,
        "lon": 153.66102334841392,
        "alt_km": 21539.127163597608,
        "timestamp": "2025-12-21T22:41:41.703983+00:00",
        "meta_object_name": "BEIDOU-3 M7 (C27)",
        "meta_object_id": "2018-003A",
        "meta_epoch": "2025-12-21T14:51:30.928608",
        "meta_mean_motion": 1.86232633,
        "meta_eccentricity": 0.0002983,
        "meta_inclination": 54.4889,
        "meta_ra_of_asc_node": 308.5062,
        "meta_arg_of_pericenter": 66.7112,
        "meta_mean_anomaly": 293.3168,
        "meta_ephemeris_type": 0,
        "meta_classification_type": "U",
        "meta_norad_cat_id": 43107,
        "meta_element_set_no": 999,
        "meta_rev_at_epoch": 5404,
        "meta_bstar": 0,
        "meta_mean_motion_dot": -6.2e-07,
        "meta_mean_motion_ddot": 0,
        "tle_line1": "1 43107U 18003A   25355.61910797 -.00000062  00000+0  00000+0 0  9994",
        "tle_line2": "2 43107  54.4889 308.5062 0002983  66.7112 293.3168  1.86232633 54043"
      },
      "geometry": {
        "type": "Point",
        "coordinates": [
          153.66102334841392,
          -30.822259260112375
        ]
      }
    },
    {
      "type": "Feature",
      "properties": {
        "norad_id": 43108,
        "name": "BEIDOU-3 M8 (C28)",
        "group": "gnss",
        "lat": -52.094954426395404,
        "lon": -165.14366263039386,
        "alt_km": 21521.848659384657,
        "timestamp": "2025-12-21T22:41:41.703994+00:00",
        "meta_object_name": "BEIDOU-3 M8 (C28)",
        "meta_object_id": "2018-003B",
        "meta_epoch": "2025-12-21T00:39:03.607776",
        "meta_mean_motion": 1.86231132,
        "meta_eccentricity": 0.00046009,
        "meta_inclination": 54.4823,
        "meta_ra_of_asc_node": 308.5094,
        "meta_arg_of_pericenter": 278.1656,
        "meta_mean_anomaly": 81.7767,
        "meta_ephemeris_type": 0,
        "meta_classification_type": "U",
        "meta_norad_cat_id": 43108,
        "meta_element_set_no": 999,
        "meta_rev_at_epoch": 5404,
        "meta_bstar": 0,
        "meta_mean_motion_dot": -6.6e-07,
        "meta_mean_motion_ddot": 0,
        "tle_line1": "1 43108U 18003B   25355.02712509 -.00000066  00000+0  00000+0 0  9995",
        "tle_line2": "2 43108  54.4823 308.5094 0004600 278.1656  81.7767  1.86231132 54044"
      },
      "geometry": {
        "type": "Point",
        "coordinates": [
          -165.14366263039386,
          -52.094954426395404
        ]
      }
    },
    {
      "type": "Feature",
      "properties": {
        "norad_id": 43207,
        "name": "BEIDOU-3 M4 (C22)",
        "group": "gnss",
        "lat": -32.848775729109605,
        "lon": 43.73414462058684,
        "alt_km": 21523.805765335448,
        "timestamp": "2025-12-21T22:41:41.704007+00:00",
        "meta_object_name": "BEIDOU-3 M4 (C22)",
        "meta_object_id": "2018-018A",
        "meta_epoch": "2025-12-20T09:29:07.105632",
        "meta_mean_motion": 1.86231247,
        "meta_eccentricity": 0.0004167,
        "meta_inclination": 56.4917,
        "meta_ra_of_asc_node": 69.0512,
        "meta_arg_of_pericenter": 3.4046,
        "meta_mean_anomaly": 356.639,
        "meta_ephemeris_type": 0,
        "meta_classification_type": "U",
        "meta_norad_cat_id": 43207,
        "meta_element_set_no": 999,
        "meta_rev_at_epoch": 5341,
        "meta_bstar": 0,
        "meta_mean_motion_dot": -4.3e-07,
        "meta_mean_motion_ddot": 0,
        "tle_line1": "1 43207U 18018A   25354.39522113 -.00000043  00000+0  00000+0 0  9995",
        "tle_line2": "2 43207  56.4917  69.0512 0004167   3.4046 356.6390  1.86231247 53417"
      },
      "geometry": {
        "type": "Point",
        "coordinates": [
          43.73414462058684,
          -32.848775729109605
        ]
      }
    },
    {
      "type": "Feature",
      "properties": {
        "norad_id": 43208,
        "name": "BEIDOU-3 M3 (C21)",
        "group": "gnss",
        "lat": -56.2141333512136,
        "lon": -12.357089295056985,
        "alt_km": 21518.83748957126,
        "timestamp": "2025-12-21T22:41:41.704018+00:00",
        "meta_object_name": "BEIDOU-3 M3 (C21)",
        "meta_object_id": "2018-018B",
        "meta_epoch": "2025-12-21T12:51:19.783296",
        "meta_mean_motion": 1.86231409,
        "meta_eccentricity": 0.00070153,
        "meta_inclination": 56.4924,
        "meta_ra_of_asc_node": 69.0175,
        "meta_arg_of_pericenter": 313.8809,
        "meta_mean_anomaly": 46.108,
        "meta_ephemeris_type": 0,
        "meta_classification_type": "U",
        "meta_norad_cat_id": 43208,
        "meta_element_set_no": 999,
        "meta_rev_at_epoch": 5343,
        "meta_bstar": 0,
        "meta_mean_motion_dot": -3.4e-07,
        "meta_mean_motion_ddot": 0,
        "tle_line1": "1 43208U 18018B   25355.53564564 -.00000034  00000+0  00000+0 0  9999",
        "tle_line2": "2 43208  56.4924  69.0175 0007015 313.8809  46.1080  1.86231409 53430"
      },
      "geometry": {
        "type": "Point",
        "coordinates": [
          -12.357089295056985,
          -56.2141333512136
        ]
      }
    },
    {
      "type": "Feature",
      "properties": {
        "norad_id": 43245,
        "name": "BEIDOU-3 M9 (C29)",
        "group": "gnss",
        "lat": 38.57900339894758,
        "lon": 91.25418237545269,
        "alt_km": 21527.600886013155,
        "timestamp": "2025-12-21T22:41:41.704029+00:00",
        "meta_object_name": "BEIDOU-3 M9 (C29)",
        "meta_object_id": "2018-029A",
        "meta_epoch": "2025-12-21T05:09:30.864384",
        "meta_mean_motion": 1.86228362,
        "meta_eccentricity": 0.00015118,
        "meta_inclination": 54.3581,
        "meta_ra_of_asc_node": 306.1726,
        "meta_arg_of_pericenter": 290.8288,
        "meta_mean_anomaly": 69.1519,
        "meta_ephemeris_type": 0,
        "meta_classification_type": "U",
        "meta_norad_cat_id": 43245,
        "meta_element_set_no": 999,
        "meta_rev_at_epoch": 5258,
        "meta_bstar": 0,
        "meta_mean_motion_dot": -6.2e-07,
        "meta_mean_motion_ddot": 0,
        "tle_line1": "1 43245U 18029A   25355.21494056 -.00000062  00000+0  00000+0 0  9996",
        "tle_line2": "2 43245  54.3581 306.1726 0001511 290.8288  69.1519  1.86228362 52585"
      },
      "geometry": {
        "type": "Point",
        "coordinates": [
          91.25418237545269,
          38.57900339894758
        ]
      }
    }
  ]
}